satname,norad_id,inclination_deg,eccentricity,mean_motion_rev_per_day,perigee_km,apogee_km,l1,l2
STARLINK-1230,45189,53.1564,0.0003107,15.32498372,466.2339161289092,470.48833006260065,1 45189U 20012M   26127.96930797  .00042828  00000+0  13498-2 0  9990,2 45189  53.1564 124.1348 0003107  61.8211 298.3105 15.32498372341242
STARLINK-1234,45190,53.0414,0.0008354,15.70476662,351.90677043927735,363.1607291280161,1 45190U 20012N   26127.90628158  .00053606  00000+0  42978-3 0  9993,2 45190  53.0414  33.8157 0008354 119.9690 240.2157 15.70476662345164
STARLINK-1269,45197,53.1562,0.0003006,15.32463929,466.4056205027455,470.5217968488014,1 45197U 20012V   26127.96506985  .00032307  00000+0  10236-2 0  9995,2 45197  53.1562 124.0049 0003006  45.9153 314.2096 15.32463929343993
STARLINK-1154,45198,53.0419,0.0003201,15.55601408,398.2351625060828,402.5747850777043,1 45198U 20012W   26127.90679690  .00091286  00000+0  12999-2 0  9993,2 45198  53.0419  85.4305 0003201  22.0073 338.1074 15.55601408344480
STARLINK-1199,45201,53.1575,0.0001728,15.328033,466.2701702859322,468.63600622043214,1 45201U 20012Z   26127.93570420  .00045316  00000+0  14136-2 0  9990,2 45201  53.1575 108.4014 0001728 149.4232 210.6871 15.32803300344237
STARLINK-1209,45206,53.0398,0.00117,15.61342653,375.8663228366604,391.689203382336,1 45206U 20012AE  26127.49528780  .00063737  00000+0  73337-3 0  9994,2 45206  53.0398  48.5051 0011700 107.5761 252.6531 15.61342653344074
STARLINK-1231,45212,53.0408,0.0004469,15.25912076,484.97951120733524,491.11650736863703,1 45212U 20012AL  26127.91352855  .00041525  00000+0  16020-2 0  9992,2 45212  53.0408 102.7047 0004469   8.5845 351.5228 15.25912076344252
STARLINK-1271,45217,53.1575,0.0002707,15.32464129,466.60973833090975,470.31648763207704,1 45217U 20012AR  26127.93572618  .00040799  00000+0  12882-2 0  9994,2 45217  53.1575 108.5515 0002707  64.0949 296.0332 15.32464129344238
STARLINK-1191,45222,53.1562,0.0005082,15.36238334,453.77103250124674,460.7185145358517,1 45222U 20012AW  26127.92786131  .00059887  00000+0  16683-2 0  9997,2 45222  53.1562  82.4388 0005082  81.9094 278.2486 15.36238334344600
STARLINK-1212,45223,53.0415,0.0004893,15.63918812,373.045061111643,379.6550021207822,1 45223U 20012AX  26127.93213935  .00111098  00000+0  11485-2 0  9994,2 45223  53.0415  62.3724 0004893  58.2929 301.8561 15.63918812344873
STARLINK-1215,45225,53.1581,0.0002667,15.32742877,465.807229096893,469.4587628127356,1 45225U 20012AZ  26127.87265439  .00043825  00000+0  13703-2 0  9992,2 45225  53.1581  83.1439 0002667 103.7333 256.3966 15.32742877344545
STARLINK-1221,45227,53.0666,0.0002988,15.43923513,432.507325059114,436.5785825995217,1 45227U 20012BB  26127.98430129  .00011888  00000+0  26611-3 0  9993,2 45227  53.0666 348.1868 0002988 161.1525 198.9592 15.43923513345869
STARLINK-1222,45228,53.0537,9.64e-05,15.53150941,406.87880891826535,408.18708608414363,1 45228U 20012BC  26127.11782018  .00026467  00000+0  42080-3 0  9993,2 45228  53.0537  61.9145 0000964  55.5605 304.5495 15.53150941344697
STARLINK-1226,45229,53.1572,0.0003419,15.40822325,441.34869058226013,446.0134497786503,1 45229U 20012BD  26127.16409358  .00049474  00000+0  11906-2 0  9997,2 45229  53.1572  84.4088 0003419  89.7464 270.3934 15.40822325344409
STARLINK-1227,45230,53.1549,0.0004257,15.4103509,440.1493663368474,445.9569276279881,1 45230U 20012BE  26127.88982765  .00060033  00000+0  14304-2 0  9995,2 45230  53.1549  81.1204 0004257  91.1107 269.0387 15.41035090344639
STARLINK-1246,45235,53.1567,0.0003287,15.32686959,465.5492413555521,470.04976001110117,1 45235U 20012BK  26127.97369405  .00042140  00000+0  13206-2 0  9999,2 45235  53.1567 123.6139 0003287  76.4323 283.7045 15.32686959344057
STARLINK-1270,45237,53.0429,0.0004677,15.5700193,393.1710794152632,399.5079247353033,1 45237U 20012BM  26127.95437065  .00091234  00000+0  12333-2 0  9995,2 45237  53.0429  62.2767 0004677  78.2459 281.9076 15.57001930344875
STARLINK-1279,45360,53.0359,0.000912,15.7042093,351.5500313505372,363.8361854682762,1 45360U 20019A   26127.82162486  .00107053  00000+0  84977-3 0  9998,2 45360  53.0359 169.0429 0009120   7.8043 352.3114 15.70420930339926
STARLINK-1301,45361,53.0383,0.0006565,15.72589268,347.08195469325983,355.9179680235238,1 45361U 20019B   26127.52638806  .00049221  00000+0  36192-3 0  9998,2 45361  53.0383 173.6565 0006565  27.2193 332.9167 15.72589268339843
STARLINK-1262,45366,53.1566,0.00024,15.31615269,469.3487944711551,472.63637667223065,1 45366U 20019G   26127.53281768  .00033707  00000+0  10959-2 0  9999,2 45366  53.1566 251.9060 0002400 345.0638  15.0292 15.31615269338765
STARLINK-1273,45367,53.0457,0.0004705,15.53103003,404.47985414394225,410.86530095641774,1 45367U 20019H   26127.58368033  .00068602  00000+0  10748-2 0  9994,2 45367  53.0457 232.7676 0004705 305.7450  54.3121 15.53103003339028
STARLINK-1277,45369,53.0445,0.0005709,15.59108056,386.37318096180843,394.10131067568454,1 45369U 20019K   26127.53740692  .00076981  00000+0  96403-3 0  9998,2 45369  53.0445 228.4858 0005709 294.1544  65.8870 15.59108056339084
STARLINK-1281,45370,53.1574,0.0002718,15.32577409,466.26491835047364,469.9865467718937,1 45370U 20019L   26127.62845330  .00041474  00000+0  13045-2 0  9994,2 45370  53.1574 251.2847 0002718 334.3792  25.7074 15.32577409338781
STARLINK-1300,45374,53.1594,0.0003101,15.32844376,465.208012860101,469.45357198496185,1 45374U 20019Q   26127.77872323  .00041052  00000+0  12807-2 0  9993,2 45374  53.1594 250.5673 0003101 354.1757   5.9209 15.32844376338807
STARLINK-1302,45375,53.0471,0.0003845,15.64507208,372.05994497305164,377.25284309306244,1 45375U 20019R   26127.55444146  .00069310  00000+0  70586-3 0  9994,2 45375  53.0471 225.4462 0003845 329.1678  30.9110 15.64507208339127
STARLINK-1304,45376,53.0438,0.000487,15.58418732,388.9357989711352,395.53013932108297,1 45376U 20019S   26127.64510419  .00073618  00000+0  94706-3 0  9998,2 45376  53.0438 225.1562 0004870 319.6361  40.4289 15.58418732339131
STARLINK-1305,45377,53.0378,0.0009811,15.64826772,367.1127430038305,380.3612701795646,1 45377U 20019T   26127.94360320  .00037907  00000+0  38443-3 0  9993,2 45377  53.0378 204.0012 0009811 334.6183  25.4348 15.64826772339469
STARLINK-1319,45379,53.041,0.0004458,15.72844352,347.77258526699006,353.7720808283357,1 45379U 20019V   26127.91229731  .00059305  00000+0  43021-3 0  9996,2 45379  53.0410 197.3288 0004458 357.7103   2.3894 15.72844352339550
STARLINK-1266,45383,53.0448,0.0004707,15.54852785,399.38891519650315,405.772282744173,1 45383U 20019Z   26127.52241098  .00071235  00000+0  10466-2 0  9990,2 45383  53.0448 210.5778 0004707 311.8776  48.1832 15.54852785339326
STARLINK-1267,45384,53.0451,0.0007136,15.60710941,380.7756668484435,390.4288755362895,1 45384U 20019AA  26127.93480581  .00092157  00000+0  10821-2 0  9999,2 45384  53.0451 200.4797 0007136   0.9511 359.1514 15.60710941339508
STARLINK-1272,45386,53.0396,0.0008141,15.66456871,363.55918075192767,374.5449539914225,1 45386U 20019AC  26127.86007308  .00039186  00000+0  37243-3 0  9996,2 45386  53.0396 180.7343 0008141 354.0157   6.0760 15.66456871339776
STARLINK-1274,45387,53.0224,0.0009321,15.56774815,390.68325961979735,403.3134669640467,1 45387U 20019AD  26127.83811399  .00078243  00000+0  10679-2 0  9997,2 45387  53.0224 178.1041 0009321  16.8210 343.3108 15.56774815339804
STARLINK-1280,45388,53.0377,0.0005473,15.73495404,345.23437927068153,352.5978115889393,1 45388U 20019AE  26127.87298642  .00061148  00000+0  43108-3 0  9992,2 45388  53.0377 190.0610 0005473   1.9002 358.2036 15.73495404339636
STARLINK-1283,45389,53.0401,0.0003964,15.67657557,362.9332437938783,368.2796836119023,1 45389U 20019AF  26127.39293722  .00039005  00000+0  35364-3 0  9996,2 45389  53.0401 182.4127 0003964  23.2350 336.8844 15.67657557339719
STARLINK-1284,45390,53.0404,0.0004227,15.66751969,365.3531392811574,371.0564966540678,1 45390U 20019AG  26127.51709146  .00036734  00000+0  34584-3 0  9993,2 45390  53.0404 205.4412 0004227 299.6580  60.4014 15.66751969339398
STARLINK-1297,45395,53.0414,0.0005954,15.65257925,368.4777452291273,376.51640028296515,1 45395U 20019AM  26127.88311969  .00039138  00000+0  39051-3 0  9995,2 45395  53.0414 202.3098 0005954 313.6241  46.4279 15.65257925338656
STARLINK-1307,45397,53.053,0.0001666,15.54671967,401.9765933350682,404.23610361878127,1 45397U 20019AP  26127.91001747  .00027886  00000+0  41916-3 0  9991,2 45397  53.0530 205.5550 0001666  19.6937 340.4137 15.54671967339257
STARLINK-1255,45399,53.0362,0.0006442,15.61663597,378.49585651432517,387.20671382093406,1 45399U 20019AR  26127.85753905  .00028455  00000+0  32884-3 0  9993,2 45399  53.0362 175.6005 0006442   5.5994 354.5090 15.61663597339654
STARLINK-1260,45404,53.1557,0.0004617,15.35163663,457.2770453747071,463.5917822182073,1 45404U 20019AW  26128.00002315  .00035349  00000+0  10270-2 0  9994,2 45404  53.1557 212.8518 0004617 342.7936  93.2991 15.35163663  5876
STARLINK-1263,45405,53.1574,0.0003202,15.32635372,465.76100009431593,470.1452362059799,1 45405U 20019AX  26127.51287760  .00013574  00000+0  43554-3 0  9997,2 45405  53.1574 215.8071 0003202   7.4353 352.6695 15.32635372338982
STARLINK-1265,45406,53.1556,0.0004366,15.3541205,456.7114684381031,462.68226497051,1 45406U 20019AY  26127.72550005  .00039088  00000+0  11250-2 0  9991,2 45406  53.1556 214.2035 0004366 336.6915  23.3889 15.35412050339021
STARLINK-1278,45408,53.0404,0.0006191,15.65950852,366.3274222017135,374.68359135360515,1 45408U 20019BA  26127.54343766  .00037307  00000+0  36241-3 0  9997,2 45408  53.0404 203.1105 0006191 338.4123  21.6629 15.65950852339155
STARLINK-1296,45412,53.1567,0.0005212,15.35678384,455.3427827043088,462.46971658774055,1 45412U 20019BE  26127.96482004  .00049728  00000+0  14140-2 0  9990,2 45412  53.1567 212.8242 0005212 333.6002  26.4735 15.35678384339061
